SatCatId,ObjectName,LaunchYear,OrbitalPeriod,LaunchMass,StatusCode,Inclination,Status,UcsData,OrbitClassEstimated,LaunchSiteCountry,Owner,UseType,Purpose,LaunchVehicleClass,TLE1,TLE2,MeanMotion,Eccentricity,OrbitClass
57090,STARLINK-6254,2023,95.84,-1.0,+,43.0,Active,0,LEO,USA,USA,Unknown,Unknown,Unknown,1 57090U 23088AU  23276.30030365 -.00000105  00000+0  72802-5 0  9992,2 57090  43.0006 241.6542 0001068 269.9593  90.1127 15.02536451 16883,15.02536451,0.0001068,LEO
57091,STARLINK-6262,2023,95.84,-1.0,+,43.0,Active,0,LEO,USA,USA,Unknown,Unknown,Unknown,1 57091U 23088AV  23276.29475196  .00000561  00000+0  56556-4 0  9998,2 57091  43.0021 241.6136 0001047 271.3863  88.6859 15.02537647 16886,15.02537647,0.0001047,LEO
57092,STARLINK-6225,2023,95.84,-1.0,+,43.0,Active,0,LEO,USA,USA,Unknown,Unknown,Unknown,1 57092U 23088AW  23276.29697559  .00001128  00000+0  98541-4 0  9998,2 57092  43.0006 241.6310 0001387 287.3922  72.6769 15.02533334 16886,15.02533334,0.0001387,LEO
57093,STARLINK-6229,2023,95.84,-1.0,+,43.0,Active,0,LEO,USA,USA,Unknown,Unknown,Unknown,1 57093U 23088AX  23276.28809500  .00000052  00000+0  18925-4 0  9992,2 57093  43.0023 241.5645 0001202 270.4602  89.6103 15.02537367 16880,15.02537367,0.0001202,LEO
57094,STARLINK-6235,2023,95.84,-1.0,+,43.0,Active,0,LEO,USA,USA,Unknown,Unknown,Unknown,1 57094U 23088AY  23276.28698829 -.00000289  00000+0 -63442-5 0  9992,2 57094  43.0019 241.5529 0000886 284.7588  75.3156 15.02532672 16889,15.02532672,8.86e-05,LEO
57101,STARLINK-6132,2023,95.84,-1.0,+,43.0,Active,0,LEO,USA,USA,Unknown,Unknown,Unknown,1 57101U 23090A   23276.51035029  .00006287  00000+0  47996-3 0  9993,2 57101  43.0017  61.1544 0001289 274.5848  85.4847 15.02545807 16808,15.02545807,0.0001289,LEO
57102,STARLINK-6111,2023,95.84,-1.0,+,43.0,Active,0,LEO,USA,USA,Unknown,Unknown,Unknown,1 57102U 23090B   23276.50480020 -.00001025  00000+0 -60852-4 0  9992,2 57102  43.0016  61.1110 0000906 264.7591  95.3148 15.02538449 16806,15.02538449,9.06e-05,LEO
57103,STARLINK-6123,2023,95.18,-1.0,+,43.0,Active,0,LEO,USA,USA,Unknown,Unknown,Unknown,1 57103U 23090C   23276.58334491 -.00916673  00000+0 -55465-1 0  9996,2 57103  43.0004  34.9295 0001292 274.7387  35.1347 15.12782633  5997,15.12782633,0.0001292,LEO
57104,STARLINK-6130,2023,95.84,-1.0,+,43.0,Active,0,LEO,USA,USA,Unknown,Unknown,Unknown,1 57104U 23090D   23276.44054405 -.00001072  00000+0 -64311-4 0  9997,2 57104  43.0027  61.4903 0000954 269.4754  90.5979 15.02534147 16797,15.02534147,9.54e-05,LEO
57105,STARLINK-6097,2023,95.84,-1.0,+,43.0,Active,0,LEO,USA,USA,Unknown,Unknown,Unknown,1 57105U 23090E   23276.43721451 -.00000860  00000+0 -48589-4 0  9992,2 57105  43.0018  61.4659 0001051 270.5920  89.4802 15.02532828 16799,15.02532828,0.0001051,LEO
57106,STARLINK-6118,2023,95.84,-1.0,+,43.0,Active,0,LEO,USA,USA,Unknown,Unknown,Unknown,1 57106U 23090F   23276.56462178 -.00000735  00000+0 -39364-4 0  9997,2 57106  43.0030  60.6991 0001141 270.4500  89.6212 15.02530427 16810,15.02530427,0.0001141,LEO
57107,STARLINK-6131,2023,95.84,-1.0,+,43.0,Active,0,LEO,USA,USA,Unknown,Unknown,Unknown,1 57107U 23090G   23276.55129682  .00000748  00000+0  70471-4 0  9993,2 57107  43.0027  60.5997 0001264 270.0016  90.0682 15.02534763 16810,15.02534763,0.0001264,LEO
57108,STARLINK-6099,2023,95.84,-1.0,+,43.0,Active,0,LEO,USA,USA,Unknown,Unknown,Unknown,1 57108U 23090H   23276.56683904  .00000789  00000+0  73497-4 0  9993,2 57108  43.0033  60.7164 0001088 277.4061  82.6657 15.02535374 16819,15.02535374,0.0001088,LEO
57109,STARLINK-6139,2023,95.84,-1.0,+,43.0,Active,0,LEO,USA,USA,Unknown,Unknown,Unknown,1 57109U 23090J   23276.55684390  .00000502  00000+0  52195-4 0  9998,2 57109  43.0022  60.6416 0001073 267.6556  92.4164 15.02537229 16814,15.02537229,0.0001073,LEO
57110,STARLINK-6134,2023,95.84,-1.0,+,43.0,Active,0,LEO,USA,USA,Unknown,Unknown,Unknown,1 57110U 23090K   23276.50146914  .00001012  00000+0  89963-4 0  9990,2 57110  43.0022  61.0848 0001390 270.1246  89.9437 15.02538193 16801,15.02538193,0.000139,LEO
57111,STARLINK-6140,2023,95.84,-1.0,+,43.0,Active,0,LEO,USA,USA,Unknown,Unknown,Unknown,1 57111U 23090L   23276.54463978  .00001247  00000+0  10736-3 0  9998,2 57111  43.0019  60.5500 0001137 271.2367  88.8345 15.02536878 16817,15.02536878,0.0001137,LEO
57112,STARLINK-6141,2023,95.84,-1.0,+,43.0,Active,0,LEO,USA,USA,Unknown,Unknown,Unknown,1 57112U 23090M   23276.42833432  .00000649  00000+0  63127-4 0  9990,2 57112  43.0024  61.3995 0001147 281.7760  78.2954 15.02535445 16790,15.02535445,0.0001147,LEO
57113,STARLINK-6142,2023,95.84,-1.0,+,43.0,Active,0,LEO,USA,USA,Unknown,Unknown,Unknown,1 57113U 23090N   23276.55018912  .00001074  00000+0  94597-4 0  9991,2 57113  43.0024  60.5938 0001139 273.9948  86.0764 15.02534469 16815,15.02534469,0.0001139,LEO
57114,STARLINK-6125,2023,95.84,-1.0,+,43.0,Active,0,LEO,USA,USA,Unknown,Unknown,Unknown,1 57114U 23090P   23276.54685755  .00000973  00000+0  87106-4 0  9991,2 57114  43.0034  60.5655 0001257 272.1398  87.9301 15.02536607 16817,15.02536607,0.0001257,LEO
57115,STARLINK-6085,2023,95.84,-1.0,+,43.0,Active,0,LEO,USA,USA,Unknown,Unknown,Unknown,1 57115U 23090Q   23276.54131072  .00000053  00000+0  18964-4 0  9995,2 57115  43.0013  60.5245 0000952 296.1266  63.9478 15.02533522 16813,15.02533522,9.52e-05,LEO
57116,STARLINK-6129,2023,95.84,-1.0,+,43.0,Active,0,LEO,USA,USA,Unknown,Unknown,Unknown,1 57116U 23090R   23276.42056350  .00001036  00000+0  91739-4 0  9991,2 57116  43.0027  61.3407 0001216 268.2445  91.8258 15.02533467 16792,15.02533467,0.0001216,LEO
57117,STARLINK-6148,2023,95.84,-1.0,+,43.0,Active,0,LEO,USA,USA,Unknown,Unknown,Unknown,1 57117U 23090S   23276.53797891 -.00000438  00000+0 -17383-4 0  9996,2 57117  43.0022  60.4981 0000881 280.1206  79.9537 15.02536164 16817,15.02536164,8.81e-05,LEO
57118,STARLINK-6151,2023,95.84,-1.0,+,43.0,Active,0,LEO,USA,USA,Unknown,Unknown,Unknown,1 57118U 23090T   23276.47705188 -.00000627  00000+0 -31347-4 0  9994,2 57118  43.0035  60.9014 0001136 270.7791  89.2921 15.02532628 16803,15.02532628,0.0001136,LEO
57119,STARLINK-6150,2023,95.84,-1.0,+,43.0,Active,0,LEO,USA,USA,Unknown,Unknown,Unknown,1 57119U 23090U   23276.40057652  .00002814  00000+0  22325-3 0  9997,2 57119  43.0008  61.1866 0000830 255.5000 104.5750 15.02540353 16799,15.02540353,8.3e-05,LEO
57120,STARLINK-6147,2023,95.84,-1.0,+,43.0,Active,0,LEO,USA,USA,Unknown,Unknown,Unknown,1 57120U 23090V   23276.53908941  .00001584  00000+0  13230-3 0  9997,2 57120  43.0022  60.5049 0001220 271.1637  88.9065 15.02538222 16816,15.02538222,0.000122,LEO
57121,STARLINK-6152,2023,95.84,-1.0,+,43.0,Active,0,LEO,USA,USA,Unknown,Unknown,Unknown,1 57121U 23090W   23276.39170484  .00000654  00000+0  63467-4 0  9990,2 57121  43.0030  61.1203 0001136 279.1280  80.9434 15.02536381 16606,15.02536381,0.0001136,LEO
57122,STARLINK-6149,2023,95.84,-1.0,+,43.0,Active,0,LEO,USA,USA,Unknown,Unknown,Unknown,1 57122U 23090X   23276.13134191 -.00000427  00000+0 -16536-4 0  9993,2 57122  43.0025  62.6065 0001150 274.1264  85.9447 15.02538805 16754,15.02538805,0.000115,LEO
57123,STARLINK-6154,2023,95.84,-1.0,+,43.0,Active,0,LEO,USA,USA,Unknown,Unknown,Unknown,1 57123U 23090Y   23276.52133247  .00000321  00000+0  38818-4 0  9996,2 57123  43.0025  60.3700 0001184 274.6266  85.4441 15.02534129 16620,15.02534129,0.0001184,LEO
57124,STARLINK-6146,2023,95.84,-1.0,+,43.0,Active,0,LEO,USA,USA,Unknown,Unknown,Unknown,1 57124U 23090Z   23276.46151340 -.00000081  00000+0  90743-5 0  9994,2 57124  43.0029  60.7835 0001029 278.3570  81.7156 15.02535793 16805,15.02535793,0.0001029,LEO
57125,STARLINK-6100,2023,95.84,-1.0,+,43.0,Active,0,LEO,USA,USA,Unknown,Unknown,Unknown,1 57125U 23090AA  23276.58334491 -.00062177  00000+0 -46252-2 0  9996,2 57125  43.0031  47.7142 0001706 261.5620 144.4287 15.02562633  5899,15.02562633,0.0001706,LEO
57126,STARLINK-6167,2023,95.84,-1.0,+,43.0,Active,0,LEO,USA,USA,Unknown,Unknown,Unknown,1 57126U 23090AB  23276.12801242 -.00000808  00000+0 -44762-4 0  9999,2 57126  43.0015  62.5809 0001161 275.3318  84.7392 15.02535875 16757,15.02535875,0.0001161,LEO
57127,STARLINK-6165,2023,95.84,-1.0,+,43.0,Active,0,LEO,USA,USA,Unknown,Unknown,Unknown,1 57127U 23090AC  23276.51689009 -.00000779  00000+0 -42586-4 0  9997,2 57127  43.0027  60.3390 0001114 274.7088  85.3627 15.02536866 16622,15.02536866,0.0001114,LEO
57128,STARLINK-6163,2023,95.84,-1.0,+,43.0,Active,0,LEO,USA,USA,Unknown,Unknown,Unknown,1 57128U 23090AD  23276.52354904  .00001306  00000+0  11171-3 0  9992,2 57128  43.0028  60.3872 0001028 273.0841  86.9884 15.02537261 16624,15.02537261,0.0001028,LEO
57129,STARLINK-6170,2023,95.71,-1.0,+,43.0,Active,0,LEO,USA,USA,Unknown,Unknown,Unknown,1 57129U 23090AE  23276.52271576 -.00002054  00000+0 -12978-3 0  9995,2 57129  43.0035  48.2217 0001499 260.4479  99.6194 15.04491958 16764,15.04491958,0.0001499,LEO
57130,STARLINK-6172,2023,95.84,-1.0,+,43.0,Active,0,LEO,USA,USA,Unknown,Unknown,Unknown,1 57130U 23090AF  23276.45152300 -.00000557  00000+0 -26197-4 0  9997,2 57130  43.0022  60.7069 0001352 279.9560  80.1130 15.02536293 16619,15.02536293,0.0001352,LEO
57131,STARLINK-6162,2023,95.84,-1.0,+,43.0,Active,0,LEO,USA,USA,Unknown,Unknown,Unknown,1 57131U 23090AG  23276.58334491 -.00094989  00000+0 -71028-2 0  9998,2 57131  43.0032  47.8437 0001277 268.0445  83.8665 15.02586048  5831,15.02586048,0.0001277,LEO
57132,STARLINK-6128,2023,95.84,-1.0,+,43.0,Active,0,LEO,USA,USA,Unknown,Unknown,Unknown,1 57132U 23090AH  23276.44486476 -.00000964  00000+0 -56295-4 0  9996,2 57132  43.0029  60.6573 0001033 273.5223  86.5501 15.02535620 16614,15.0253562,0.0001033,LEO
57133,STARLINK-6143,2023,95.78,-1.0,+,43.0,Active,0,LEO,USA,USA,Unknown,Unknown,Unknown,1 57133U 23090AJ  23276.37144636 -.00113804  00000+0 -83294-2 0  9993,2 57133  43.0004  48.8069 0001750 244.3512 115.7150 15.03501840 16746,15.0350184,0.000175,LEO
